OPS 6582 (TRANSIT 5B-5) 
1 00965U 64083D   22114.49385348  .00000042  00000+0  45160-4 0  9990
2 00965  90.0303 195.2755 0041799  29.4784 342.0413 13.56775389838207
OSCAR 7 (AO-7)          
1 07530U 74089B   22115.18147205 -.00000022  00000+0  14936-3 0  9992
2 07530 101.9013  94.8908 0012413 142.4956 228.8410 12.53654387171033
UOSAT 2 (UO-11)         
1 14781U 84021B   22114.42887422  .00001037  00000+0  13183-3 0  9992
2 14781  97.6155 104.3368 0009547 132.1557 228.0471 14.83568120 32030
NOAA 9                  
1 15427U 84123A   22114.42109084  .00000137  00000+0  92466-4 0  9996
2 15427  99.0409  85.9709 0014238 322.1524 189.5054 14.16186799928965
LUSAT (LO-19)           
1 20442U 90005G   22115.17688897  .00000139  00000+0  67295-4 0  9996
2 20442  98.7892  79.2392 0011188 330.4144  29.6405 14.33044958685531
ITAMSAT (IO-26)         
1 22826U 93061D   22114.54051938  .00000101  00000+0  56633-4 0  9992
2 22826  98.8869 144.3069 0008797 188.5871 171.5161 14.30504160490702
RADIO ROSTO (RS-15)     
1 23439U 94085A   22114.56201220 -.00000037  00000+0  15882-3 0  9992
2 23439  64.8116 232.7760 0167321 281.7500  76.4696 11.27571352125414
JAS-2 (FO-29)           
1 24278U 96046B   22114.82532815 -.00000013  00000+0  20630-4 0  9991
2 24278  98.5220 145.8754 0351259  62.5429 301.0968 13.53113372268606
NOAA 15                 
1 25338U 98030A   22115.37908505  .00000179  00000+0  93249-4 0  9996
2 25338  98.6495 145.5956 0011605  92.9493 267.3016 14.26113033245705
TECHSAT 1B (GO-32)      
1 25397U 98043D   22114.45633807  .00000077  00000+0  53370-4 0  9991
2 25397  98.8131  64.7960 0000185 242.7015 117.4145 14.23745655235741
ISS (ZARYA)             
1 25544U 98067A   22115.51974758  .00014672  00000+0  26744-3 0  9992
2 25544  51.6436 237.4272 0006149  36.1616  61.8324 15.49681628337015
ORSTED                  
1 25635U 99008B   22115.15738416  .00000353  00000+0  91184-4 0  9990
2 25635  96.4679 352.5220 0138142 352.1909   7.7137 14.48437554222838
PHASE 3D (AO-40)        
1 26609U 00072B   22104.08395477 -.00000016  00000+0  00000+0 0  9990
2 26609   7.4349 282.4909 7984662 355.1256   0.1941  1.25588338 98347
PCSAT (NO-44)           
1 26931U 01043C   22115.18302212  .00000080  00000+0  62109-4 0  9998
2 26931  67.0514 195.8951 0007908 271.1374  88.8821 14.30687164 73941
SAUDISAT 1C (SO-50)     
1 27607U 02058C   22115.13750347  .00001085  00000+0  17043-3 0  9999
2 27607  64.5534 105.0435 0075288 304.9446  54.4599 14.76027558 40712
CUTE-1 (CO-55)          
1 27844U 03031E   22114.75586896  .00000277  00000+0  14417-3 0  9991
2 27844  98.6807 123.2501 0008655 255.9354 104.0862 14.22419884976271
CUBESAT XI-IV (CO-57)   
1 27848U 03031J   22114.28002221  .00000238  00000+0  12770-3 0  9995
2 27848  98.6854 123.3114 0008514 273.3650  86.6554 14.21980958975989
MOZHAYETS 4 (RS-22)     
1 27939U 03042A   22115.13961767  .00001105  00000+0  20454-3 0  9994
2 27939  98.1832 255.9014 0013114  22.9093 337.2681 14.67263613993228
INMARSAT 4-F1           
1 28628U 05009A   22114.93237161 -.00000275  00000+0  00000+0 0  9995
2 28628   3.5759  34.5092 0003264  14.1043 283.4663  1.00270958 62482
NOAA 18                 
1 28654U 05018A   22115.44218753  .00000156  00000+0  10835-3 0  9995
2 28654  98.9517 185.9143 0015310 120.1724 240.0967 14.12717632872586
CUBESAT XI-V            
1 28895U 05043F   22114.33051243  .00001109  00000+0  21936-3 0  9999
2 28895  98.0977 246.5729 0015604 314.6210  45.3719 14.64224703879491
METOP-A                 
1 29499U 06044A   22115.43488814  .00001156  00000+0  16180-3 0  9999
2 29499  98.4562 158.3492 0198661 173.8943 250.7296 14.67064168805756
CARTOSAT-2 (IRS-P7)     
1 29710U 07001B   22115.18547259  .00018264  00000+0  48138-3 0  9996
2 29710  97.8613 217.6766 0156715 243.6622 114.8450 15.26959356828103
FALCONSAT-3             
1 30776U 07006E   22114.08121436  .00041572  00000+0  73182-3 0  9993
2 30776  35.4313 255.4505 0000626 328.1705  31.8987 15.49413227841131
CAPE-1                  
1 31130U 07012P   22114.81170031  .00001081  00000+0  23615-3 0  9998
2 31130  98.2659  55.7678 0096696  99.3325 261.8823 14.56983672797277
CARTOSAT-2A             
1 32783U 08021A   22115.16280002  .00000760  00000+0  11068-3 0  9995
2 32783  97.9697 175.9198 0012146 346.3614  13.7271 14.78681454755144
CUTE-1.7+APD II (CO-65) 
1 32785U 08021C   22115.15757302  .00002350  00000+0  25293-3 0  9990
2 32785  97.6529  87.7177 0014187  55.2292 305.0259 14.89348730758627
COMPASS-1               
1 32787U 08021E   22115.19276900  .00004175  00000+0  38317-3 0  9994
2 32787  97.5601  99.0393 0010996 333.5339  26.5320 14.95337656760149
AAUSAT-II               
1 32788U 08021F   22114.90581127  .00006317  00000+0  55385-3 0  9997
2 32788  97.5312 102.1440 0009346 309.7025  50.3373 14.96952688760526
DELFI-C3 (DO-64)        
1 32789U 08021G   22115.04923259  .00013834  00000+0  79973-3 0  9991
2 32789  97.3447 143.3189 0012557 142.8167 217.3936 15.12324960763957
SEEDS II (CO-66)        
1 32791U 08021J   22114.20541785  .00004343  00000+0  42972-3 0  9995
2 32791  97.6078  92.3524 0013294  19.1175 341.0541 14.92310523759109
YUBILEINY (RS-30)       
1 32953U 08025A   22115.17971495  .00000021  00000+0  80971-4 0  9992
2 32953  82.5058 217.0489 0019302  20.4097 339.7753 12.43108980631711
FENGYUN 3A              
1 32958U 08026A   22115.14992555  .00000140  00000+0  87695-4 0  9997
2 32958  98.4978  79.9748 0008830 169.6031 190.5330 14.18706426720776
PRISM (HITOMI)          
1 33493U 09002B   22114.22916890  .00007858  00000+0  64880-3 0  9996
2 33493  98.2276  97.7289 0012583 349.2532  10.8419 14.99221887720853
STARS (KUKAI)           
1 33498U 09002G   22114.49833737  .00001645  00000+0  22544-3 0  9997
2 33498  98.1753   5.5737 0012138  68.2084 292.0417 14.79811313713455
KKS-1 (KISEKI)          
1 33499U 09002H   22114.55063073  .00000836  00000+0  12933-3 0  9995
2 33499  98.2254 355.6840 0010112 122.7806 237.4378 14.75918115712299
NOAA 19                 
1 33591U 09005A   22115.36656940  .00000170  00000+0  11687-3 0  9998
2 33591  99.1537 148.3741 0013436 341.2560  18.8115 14.12553191680957
SWISSCUBE               
1 35932U 09051B   22114.32297315  .00000736  00000+0  17546-3 0  9990
2 35932  98.5756 328.7335 0006865 206.1092 153.9760 14.56778906668217
BEESAT-1                
1 35933U 09051C   22114.55354663  .00000625  00000+0  15045-3 0  9995
2 35933  98.5700 330.6357 0004876 216.9777 143.1084 14.56806406668321
ITUPSAT1                
1 35935U 09051E   22114.33195205  .00000580  00000+0  14318-3 0  9990
2 35935  98.5802 330.4777 0007119 223.7323 136.3311 14.55921687668006
XIWANG-1 (HOPE-1)       
1 36122U 09072B   22115.14486988 -.00000036  00000+0  18690-4 0  9998
2 36122 100.1786  88.4729 0008174 102.6476 257.5552 13.16367985593909
CARTOSAT-2B             
1 36795U 10035A   22115.13340674  .00000635  00000+0  93616-4 0  9990
2 36795  97.9649 176.0698 0014911  59.9350 300.3362 14.78682318636189
TISAT 1                 
1 36799U 10035E   22114.82719926  .00002590  00000+0  25765-3 0  9990
2 36799  98.1890 323.1539 0010636 272.6856  87.3145 14.92576553639967
FENGYUN 3B              
1 37214U 10059A   22115.22007980 -.00000023  00000+0  12242-4 0  9991
2 37214  99.0936 120.2469 0022813 143.0849 217.1899 14.14250189593430
JUGNU                   
1 37839U 11058B   22115.15190015  .00000442  00000+0  93238-4 0  9996
2 37839  19.9600 138.7588 0018684 289.4200 119.2036 14.12770162544702
SRMSAT                  
1 37841U 11058D   22114.58812168  .00000395  00000+0  71910-4 0  9995
2 37841  19.9710 220.5122 0011985 111.5587   2.4903 14.10742389543625
M-CUBED & EXP-1 PRIME   
1 37855U 11061F   22115.15482289  .00012574  00000+0  56700-3 0  9996
2 37855 101.7032 206.1507 0158127 221.8481 137.0557 15.10762384573656
HORYU-2                 
1 38340U 12025D   22114.47084092  .00001572  00000+0  23330-3 0  9990
2 38340  98.1959 192.0632 0012182  46.3415 313.8802 14.76470935524272
METOP-B                 
1 38771U 12049A   22115.41324255  .00000091  00000+0  61473-4 0  9993
2 38771  98.7004 175.9379 0001195 140.7746 281.7375 14.21496086498197
SARAL                   
1 39086U 13009A   22115.14867732  .00000093  00000+0  50979-4 0  9993
2 39086  98.5480 301.5805 0002264  79.0119 281.1319 14.32032699478851
AAUSAT 3                
1 39087U 13009B   22115.04622269  .00000481  00000+0  17951-3 0  9990
2 39087  98.4037 315.9421 0013484  67.1763 293.0820 14.36118540479912
STRAND-1                
1 39090U 13009E   22114.96892284  .00000160  00000+0  70722-4 0  9990
2 39090  98.4086 314.4915 0010325  73.2048 287.0270 14.35273738479740
BRITE-AUSTRIA           
1 39091U 13009F   22114.53461149  .00000165  00000+0  72604-4 0  9992
2 39091  98.4100 313.2299 0011674  80.1477 280.1026 14.35253490479691
UNIBRITE                
1 39092U 13009G   22114.34224856  .00000151  00000+0  67646-4 0  9999
2 39092  98.4133 312.7953 0010577  76.4841 283.7522 14.35124244479620
SOMP                    
1 39134U 13015E   22114.95111503  .00018358  00000+0  68788-3 0  9999
2 39134  64.8612 237.2741 0033420 289.4040  70.3480 15.26839366499063
BEESAT-3                
1 39135U 13015F   22114.68824411  .00013634  00000+0  58165-3 0  9999
2 39135  64.8659 272.9591 0035025 296.3144  63.4388 15.22611792498357
BEESAT-2                
1 39136U 13015G   22114.44052454  .00014622  00000+0  64889-3 0  9992
2 39136  64.8753 281.6023 0012659 288.8811  71.0944 15.21711503497694
NEE-01 PEGASO           
1 39151U 13018B   22115.19964743  .00001526  00000+0  20447-3 0  9999
2 39151  97.9857 221.0679 0018081  70.1527 290.1632 14.80779018485806
CUBEBUG-1 (CAPITAN BETO)
1 39153U 13018D   22115.22406355  .00001818  00000+0  23851-3 0  9991
2 39153  98.0059 225.3185 0017855  65.2117 295.0951 14.81445929485957
